NORAD_CAT_ID,OBJECT_NAME,OBJECT_TYPE,EPOCH,MEAN_MOTION,ECCENTRICITY,INCLINATION,RA_OF_ASC_NODE,ARG_OF_PERICENTER,MEAN_ANOMALY,BSTAR,MEAN_MOTION_DOT,MEAN_MOTION_DDOT,TLE_LINE0,TLE_LINE1,TLE_LINE2,SEMIMAJOR_AXIS,PERIOD,APOGEE,PERIGEE,DECAYED
56786.0,STARLINK-6341,PAYLOAD,2023-09-26 15:01:20,15.69923777,0.0003677,69.9978,80.5511,269.0874,90.99,1.1292e-05,1.145e-05,0.0,0 STARLINK-6341,1 56786U 23078V   23269.62593726  .00001145  00000-0  11292-4 0  9994,2 56786  69.9978  80.5511 0003677 269.0874  90.9900 15.69923777 18621,6737.252,91.724,361.594,356.64,0.0
56786.0,STARLINK-6341,PAYLOAD,2023-09-26 21:08:21,15.69924465,0.0003468,69.9967,79.8333,271.9447,88.1352,1.0097e-05,1.001e-05,0.0,0 STARLINK-6341,1 56786U 23078V   23269.88080482  .00001001  00000-0  10097-4 0  9995,2 56786  69.9967  79.8333 0003468 271.9447  88.1352 15.69924465 18667,6737.25,91.724,361.452,356.779,0.0
56786.0,STARLINK-6341,PAYLOAD,2023-09-27 04:47:07,15.6991506,0.0003793,69.9973,78.9381,267.3166,92.7595,-1.5536e-06,-4e-06,0.0,0 STARLINK-6341,1 56786U 23078V   23270.19939618 -.00000400  00000-0 -15536-5 0  9993,2 56786  69.9973  78.9381 0003793 267.3166  92.7595 15.69915060 18970,6737.277,91.725,361.697,356.587,0.0
56786.0,STARLINK-6341,PAYLOAD,2023-09-27 12:25:53,15.69926496,0.0003591,69.9973,78.0434,268.7902,91.2883,-1.6001e-05,-2.137e-05,0.0,0 STARLINK-6341,1 56786U 23078V   23270.51797693 -.00002137  00000-0 -16001-4 0  9990,2 56786  69.9973  78.0434 0003591 268.7902  91.2883 15.69926496 18765,6737.244,91.724,361.529,356.69,0.0
56786.0,STARLINK-6341,PAYLOAD,2023-09-27 13:57:38,15.69928563,0.0003521,69.9977,77.8641,269.0325,91.0468,-1.5886e-05,-2.123e-05,0.0,0 STARLINK-6341,1 56786U 23078V   23270.58169237 -.00002123  00000-0 -15886-4 0  9999,2 56786  69.9977  77.8641 0003521 269.0325  91.0468 15.69928563 19037,6737.238,91.724,361.476,356.731,0.0
56786.0,STARLINK-6341,PAYLOAD,2023-09-28 14:25:39,15.69928671,0.0003268,69.9971,74.9954,261.5077,98.5748,1.5176e-05,1.613e-05,0.0,0 STARLINK-6341,1 56786U 23078V   23271.60115552  .00001613  00000-0  15176-4 0  9997,2 56786  69.9971  74.9954 0003268 261.5077  98.5748 15.69928671 18936,6737.238,91.724,361.305,356.901,0.0
56786.0,STARLINK-6341,PAYLOAD,2023-09-28 20:32:40,15.69921622,0.0003403,69.9974,74.2783,270.5187,89.5618,8.8212e-06,8.48e-06,0.0,0 STARLINK-6341,1 56786U 23078V   23271.85602826  .00000848  00000-0  88212-5 0  9990,2 56786  69.9974  74.2783 0003403 270.5187  89.5618 15.69921622 18974,6737.258,91.724,361.416,356.831,0.0
56786.0,STARLINK-6341,PAYLOAD,2023-09-29 13:21:56,15.69927247,0.0003584,69.9972,72.31,268.8828,91.1957,1.9157e-05,2.091e-05,0.0,0 STARLINK-6341,1 56786U 23078V   23272.55690760  .00002091  00000-0  19157-4 0  9995,2 56786  69.9972  72.3100 0003584 268.8828  91.1957 15.69927247 19083,6737.242,91.724,361.522,356.693,0.0
56786.0,STARLINK-6341,PAYLOAD,2023-09-29 14:53:41,15.69929809,0.0003493,69.9976,72.1314,269.792,90.2876,2.244e-05,2.487e-05,0.0,0 STARLINK-6341,1 56786U 23078V   23272.62062241  .00002487  00000-0  22440-4 0  9998,2 56786  69.9976  72.1314 0003493 269.7920  90.2876 15.69929809 19350,6737.235,91.724,361.453,356.746,0.0
56786.0,STARLINK-6341,PAYLOAD,2023-09-29 19:28:57,15.69930512,0.0003546,69.9976,71.5941,270.7719,89.3071,2.1357e-05,2.357e-05,0.0,0 STARLINK-6341,1 56786U 23078V   23272.81177182  .00002357  00000-0  21357-4 0  9992,2 56786  69.9976  71.5941 0003546 270.7719  89.3071 15.69930512 19120,6737.233,91.724,361.487,356.709,0.0
56786.0,STARLINK-6341,PAYLOAD,2023-09-30 10:46:28,15.699229,0.0003495,69.9976,69.802,268.6283,91.4512,1.4046e-05,1.476e-05,0.0,0 STARLINK-6341,1 56786U 23078V   23273.44894300  .00001476  00000-0  14046-4 0  9998,2 56786  69.9976  69.8020 0003495 268.6283  91.4512 15.69922900 19488,6737.255,91.724,361.474,356.765,0.0
56786.0,STARLINK-6341,PAYLOAD,2023-09-30 18:25:15,15.69902542,0.0003475,69.9977,68.9064,270.5192,89.5605,-1.0015e-05,-1.416e-05,0.0,0 STARLINK-6341,1 56786U 23078V   23273.76754493 -.00001416  00000-0 -10015-4 0  9999,2 56786  69.9977  68.9064 0003475 270.5192  89.5605 15.69902542 19533,6737.313,91.725,361.519,356.837,0.0
56786.0,STARLINK-6341,PAYLOAD,2023-10-01 11:14:30,15.69934255,0.0003027,69.9978,66.9364,270.7827,89.3022,1.453e-05,1.535e-05,0.0,0 STARLINK-6341,1 56786U 23078V   23274.46840449  .00001535  00000-0  14530-4 0  9990,2 56786  69.9978  66.9364 0003027 270.7827  89.3022 15.69934255 19644,6737.222,91.724,361.126,357.048,0.0
56786.0,STARLINK-6341,PAYLOAD,2023-10-01 12:46:17,15.6990169,0.0004097,69.9979,66.757,285.6414,74.4329,-1.9806e-05,-2.592e-05,0.0,0 STARLINK-6341,1 56786U 23078V   23274.53214768 -.00002592  00000-0 -19806-4 0  9994,2 56786  69.9979  66.7570 0004097 285.6414  74.4329 15.69901690 19391,6737.315,91.725,361.941,356.42,0.0
56786.0,STARLINK-6341,PAYLOAD,2023-10-01 18:53:17,15.69910101,0.0003538,69.9977,66.0408,277.4531,82.6262,-1.1061e-05,-1.542e-05,0.0,0 STARLINK-6341,1 56786U 23078V   23274.78700831 -.00001542  00000-0 -11061-4 0  9991,2 56786  69.9977  66.0408 0003538 277.4531  82.6262 15.69910101 19697,6737.291,91.725,361.54,356.773,0.0
56786.0,STARLINK-6341,PAYLOAD,2023-10-01 20:25:02,15.69918814,0.000377,69.9981,65.8636,275.2918,84.7847,-1.044e-05,-1.468e-05,0.0,0 STARLINK-6341,1 56786U 23078V   23274.85071915 -.00001468  00000-0 -10440-4 0  9990,2 56786  69.9981  65.8636 0003770 275.2918  84.7847 15.69918814 19449,6737.266,91.724,361.671,356.591,0.0
56786.0,STARLINK-6341,PAYLOAD,2023-10-02 19:21:17,15.69929345,0.0004653,69.9973,63.1731,283.8071,76.2607,2.1272e-05,2.346e-05,0.0,0 STARLINK-6341,1 56786U 23078V   23275.80645764  .00002346  00000-0  21272-4 0  9994,2 56786  69.9973  63.1731 0004653 283.8071  76.2607 15.69929345 19859,6737.236,91.724,362.236,355.966,0.0
56786.0,STARLINK-6341,PAYLOAD,2023-10-03 03:00:03,15.69928264,0.0003763,69.9974,62.2765,268.066,92.0105,-2.2999e-06,-4.9e-06,0.0,0 STARLINK-6341,1 56786U 23078V   23276.12504627 -.00000490  00000-0 -22999-5 0  9990,2 56786  69.9974  62.2765 0003763 268.0660  92.0105 15.69928264 19901,6737.239,91.724,361.639,356.569,0.0
56786.0,STARLINK-6341,PAYLOAD,2023-10-03 13:42:20,15.69919015,0.0003568,69.9969,61.0233,265.9246,94.1542,-1.0359e-07,-2.25e-06,0.0,0 STARLINK-6341,1 56786U 23078V   23276.57106936 -.00000225  00000-0 -10359-6 0  9994,2 56786  69.9969  61.0233 0003568 265.9246  94.1542 15.69919015 19712,6737.266,91.724,361.535,356.727,0.0
56786.0,STARLINK-6341,PAYLOAD,2023-10-03 18:17:35,15.69911092,0.0003747,69.9971,60.486,268.3237,91.753,2.0422e-05,2.242e-05,0.0,0 STARLINK-6341,1 56786U 23078V   23276.76222182  .00002242  00000-0  20422-4 0  9996,2 56786  69.9971  60.4860 0003747 268.3237  91.7530 15.69911092 20001,6737.288,91.725,361.678,356.629,0.0
56786.0,STARLINK-6341,PAYLOAD,2023-10-03 19:49:20,15.69922852,0.0003826,69.9981,60.3079,272.8786,87.1972,3.2192e-05,3.66e-05,0.0,0 STARLINK-6341,1 56786U 23078V   23276.82592959  .00003660  00000-0  32192-4 0  9997,2 56786  69.9981  60.3079 0003826 272.8786  87.1972 15.69922852 19755,6737.255,91.724,361.697,356.542,0.0
56786.0,STARLINK-6341,PAYLOAD,2023-10-04 12:38:36,15.69924815,0.000376,69.9989,58.3364,269.6349,90.4416,1.7598e-05,1.904e-05,0.0,0 STARLINK-6341,1 56786U 23078V   23277.52681192  .00001904  00000-0  17598-4 0  9995,2 56786  69.9989  58.3364 0003760 269.6349  90.4416 15.69924815 19866,6737.249,91.724,361.647,356.581,0.0
56786.0,STARLINK-6341,PAYLOAD,2023-10-04 18:45:37,15.69927472,0.0003934,69.9974,57.6206,275.4314,84.6433,1.9938e-06,2.7e-07,0.0,0 STARLINK-6341,1 56786U 23078V   23277.78167971  .00000027  00000-0  19938-5 0  9993,2 56786  69.9974  57.6206 0003934 275.4314  84.6433 15.69927472 19908,6737.242,91.724,361.757,356.456,0.0
56786.0,STARLINK-6341,PAYLOAD,2023-10-05 02:24:22,15.6994466,0.0003706,69.9975,56.7228,268.205,91.8721,-4.0093e-05,-5.035e-05,0.0,0 STARLINK-6341,1 56786U 23078V   23278.10025783 -.00005035  00000-0 -40093-4 0  9995,2 56786  69.9975  56.7228 0003706 268.2050  91.8721 15.69944660 20211,6737.192,91.723,361.554,356.561,0.0
56786.0,STARLINK-6341,PAYLOAD,2023-10-05 10:03:08,15.69919218,0.0003552,69.9972,55.8277,266.736,93.3429,9.2276e-06,8.97e-06,0.0,0 STARLINK-6341,1 56786U 23078V   23278.41885107  .00000897  00000-0  92276-5 0  9993,2 56786  69.9972  55.8277 0003552 266.7360  93.3429 15.69919218 20266,6737.265,91.724,361.523,356.737,0.0
56786.0,STARLINK-6341,PAYLOAD,2023-10-05 13:06:38,15.69920235,0.000339,69.9975,55.4691,267.1361,92.9447,7.9579e-06,7.44e-06,0.0,0 STARLINK-6341,1 56786U 23078V   23278.54628471  .00000744  00000-0  79579-5 0  9998,2 56786  69.9975  55.4691 0003390 267.1361  92.9447 15.69920235 20021,6737.262,91.724,361.411,356.843,0.0
56786.0,STARLINK-6341,PAYLOAD,2023-10-05 19:13:39,15.69918737,0.0003581,69.9974,54.7543,266.95,93.1285,1.5259e-05,1.622e-05,0.0,0 STARLINK-6341,1 56786U 23078V   23278.80115198  .00001622  00000-0  15259-4 0  9994,2 56786  69.9974  54.7543 0003581 266.9500  93.1285 15.69918737 20063,6737.266,91.724,361.544,356.719,0.0
56786.0,STARLINK-6341,PAYLOAD,2023-10-06 10:31:10,15.69925091,0.0003425,69.9978,52.9628,267.077,93.0033,1.3287e-05,1.385e-05,0.0,0 STARLINK-6341,1 56786U 23078V   23279.43831628  .00001385  00000-0  13287-4 0  9992,2 56786  69.9978  52.9628 0003425 267.0770  93.0033 15.69925091 20420,6737.248,91.724,361.421,356.806,0.0
56786.0,STARLINK-6341,PAYLOAD,2023-10-06 12:02:55,15.69927042,0.0003248,69.9975,52.7832,262.6525,97.4302,1.0604e-05,1.063e-05,0.0,0 STARLINK-6341,1 56786U 23078V   23279.50203251  .00001063  00000-0  10604-4 0  9998,2 56786  69.9975  52.7832 0003248 262.6525  97.4302 15.69927042 20171,6737.243,91.724,361.296,356.919,0.0
56786.0,STARLINK-6341,PAYLOAD,2023-10-06 18:09:55,15.69934879,0.0003374,69.9977,52.0648,268.0186,92.0623,1.973e-05,2.161e-05,0.0,0 STARLINK-6341,1 56786U 23078V   23279.75689319  .00002161  00000-0  19730-4 0  9997,2 56786  69.9977  52.0648 0003374 268.0186  92.0623 15.69934879 20470,6737.22,91.724,361.358,356.812,0.0
